QIANFAN-89              
1 63175U 25046S   25251.25920507  .00000206  00000+0  29957-3 0  9996
2 63175  88.9853 329.8961 0017502  48.7123 311.5532 13.50976454 34510
QIANFAN-90              
1 63176U 25046T   25251.21395433  .00000207  00000+0  30237-3 0  9991
2 63176  88.9853 329.8729 0014414  48.6464 311.5924 13.50975557 34528
